[{"OBJECT_NAME":"STARLINK-3058","OBJECT_ID":"2021-082J","EPOCH":"2026-03-09T21:56:31.840224","MEAN_MOTION":14.98327791,"ECCENTRICITY":0.00020205,"INCLINATION":69.9986,"RA_OF_ASC_NODE":293.8975,"ARG_OF_PERICENTER":250.3449,"MEAN_ANOMALY":109.7493,"EPHEMERIS_TYPE":0,"CLASSIFICATION_TYPE":"U","NORAD_CAT_ID":49138,"ELEMENT_SET_NO":999,"REV_AT_EPOCH":24601,"BSTAR":5.8290098e-5,"MEAN_MOTION_DOT":6.03e-6,"MEAN_MOTION_DDOT":0},{"OBJECT_NAME":"CZ-4C R\/B","OBJECT_ID":"2020-103C","EPOCH":"2026-03-09T22:29:51.645120","MEAN_MOTION":15.00867026,"ECCENTRICITY":0.00868382,"INCLINATION":98.3813,"RA_OF_ASC_NODE":98.2397,"ARG_OF_PERICENTER":305.3689,"MEAN_ANOMALY":53.9441,"EPHEMERIS_TYPE":0,"CLASSIFICATION_TYPE":"U","NORAD_CAT_ID":47304,"ELEMENT_SET_NO":999,"REV_AT_EPOCH":28329,"BSTAR":0.00023135286,"MEAN_MOTION_DOT":3.11e-5,"MEAN_MOTION_DDOT":0}]
